{
  "type": "FeatureCollection",
  "features": [
    {
      "type": "Feature",
      "properties": {
        "norad_id": 31300,
        "name": "FENGYUN 1C DEB",
        "group": "fengyun-1c-debris",
        "lat": -57.48245235643483,
        "lon": -120.20289283181967,
        "alt_km": 888.6978198754568,
        "timestamp": "2025-12-21T03:56:51.117298+00:00",
        "meta_object_name": "FENGYUN 1C DEB",
        "meta_object_id": "1999-025BPJ",
        "meta_epoch": "2025-12-20T18:56:37.591872",
        "meta_mean_motion": 14.15158737,
        "meta_eccentricity": 0.00598,
        "meta_inclination": 99.5423,
        "meta_ra_of_asc_node": 74.6951,
        "meta_arg_of_pericenter": 37.4017,
        "meta_mean_anomaly": 91.344,
        "meta_ephemeris_type": 0,
        "meta_classification_type": "U",
        "meta_norad_cat_id": 31300,
        "meta_element_set_no": 999,
        "meta_rev_at_epoch": 96288,
        "meta_bstar": 0.00073453,
        "meta_mean_motion_dot": 1.401e-05,
        "meta_mean_motion_ddot": 0,
        "tle_line1": "1 31300U 99025BPJ 25354.78932398  .00001401  00000+0  73453-3 0  9990",
        "tle_line2": "2 31300  99.5423  74.6951 0059800  37.4017  91.3440 14.15158737962883"
      },
      "geometry": {
        "type": "Point",
        "coordinates": [
          -120.20289283181967,
          -57.48245235643483
        ]
      }
    },
    {
      "type": "Feature",
      "properties": {
        "norad_id": 31302,
        "name": "FENGYUN 1C DEB",
        "group": "fengyun-1c-debris",
        "lat": 79.66684783576177,
        "lon": -76.67225008239512,
        "alt_km": 783.8483801725242,
        "timestamp": "2025-12-21T03:56:51.117308+00:00",
        "meta_object_name": "FENGYUN 1C DEB",
        "meta_object_id": "1999-025BPL",
        "meta_epoch": "2025-12-19T15:12:58.171104",
        "meta_mean_motion": 14.27574345,
        "meta_eccentricity": 0.002659,
        "meta_inclination": 99.4129,
        "meta_ra_of_asc_node": 36.2,
        "meta_arg_of_pericenter": 35.1141,
        "meta_mean_anomaly": 117.7071,
        "meta_ephemeris_type": 0,
        "meta_classification_type": "U",
        "meta_norad_cat_id": 31302,
        "meta_element_set_no": 999,
        "meta_rev_at_epoch": 96456,
        "meta_bstar": 0.00096178,
        "meta_mean_motion_dot": 2.325e-05,
        "meta_mean_motion_ddot": 0,
        "tle_line1": "1 31302U 99025BPL 25353.63400661  .00002325  00000+0  96178-3 0  9993",
        "tle_line2": "2 31302  99.4129  36.2000 0026590  35.1141 117.7071 14.27574345964569"
      },
      "geometry": {
        "type": "Point",
        "coordinates": [
          -76.67225008239512,
          79.66684783576177
        ]
      }
    },
    {
      "type": "Feature",
      "properties": {
        "norad_id": 31303,
        "name": "FENGYUN 1C DEB",
        "group": "fengyun-1c-debris",
        "lat": 41.113936484140744,
        "lon": 3.4229366221000577,
        "alt_km": 852.1648476047594,
        "timestamp": "2025-12-21T03:56:51.117317+00:00",
        "meta_object_name": "FENGYUN 1C DEB",
        "meta_object_id": "1999-025BPM",
        "meta_epoch": "2025-12-20T07:19:42.048192",
        "meta_mean_motion": 14.11028021,
        "meta_eccentricity": 0.00119055,
        "meta_inclination": 98.704,
        "meta_ra_of_asc_node": 10.274,
        "meta_arg_of_pericenter": 131.8938,
        "meta_mean_anomaly": 228.3251,
        "meta_ephemeris_type": 0,
        "meta_classification_type": "U",
        "meta_norad_cat_id": 31303,
        "meta_element_set_no": 999,
        "meta_rev_at_epoch": 96425,
        "meta_bstar": 6.4777287e-05,
        "meta_mean_motion_dot": 7.4e-07,
        "meta_mean_motion_ddot": 0,
        "tle_line1": "1 31303U 99025BPM 25354.30534778  .00000074  00000+0  64777-4 0  9996",
        "tle_line2": "2 31303  98.7040  10.2740 0011905 131.8938 228.3251 14.11028021964252"
      },
      "geometry": {
        "type": "Point",
        "coordinates": [
          3.4229366221000577,
          41.113936484140744
        ]
      }
    },
    {
      "type": "Feature",
      "properties": {
        "norad_id": 31311,
        "name": "FENGYUN 1C DEB",
        "group": "fengyun-1c-debris",
        "lat": -50.29605296419137,
        "lon": 87.46836049628986,
        "alt_km": 804.2086434026496,
        "timestamp": "2025-12-21T03:56:51.117326+00:00",
        "meta_object_name": "FENGYUN 1C DEB",
        "meta_object_id": "1999-025BPP",
        "meta_epoch": "2025-12-20T11:27:51.890688",
        "meta_mean_motion": 14.29806165,
        "meta_eccentricity": 0.00179107,
        "meta_inclination": 98.8528,
        "meta_ra_of_asc_node": 75.9519,
        "meta_arg_of_pericenter": 63.8383,
        "meta_mean_anomaly": 312.1414,
        "meta_ephemeris_type": 0,
        "meta_classification_type": "U",
        "meta_norad_cat_id": 31311,
        "meta_element_set_no": 999,
        "meta_rev_at_epoch": 96332,
        "meta_bstar": 0.0011628788,
        "meta_mean_motion_dot": 2.949e-05,
        "meta_mean_motion_ddot": 0,
        "tle_line1": "1 31311U 99025BPP 25354.47768392  .00002949  00000+0  11629-2 0  9993",
        "tle_line2": "2 31311  98.8528  75.9519 0017910  63.8383 312.1414 14.29806165963327"
      },
      "geometry": {
        "type": "Point",
        "coordinates": [
          87.46836049628986,
          -50.29605296419137
        ]
      }
    },
    {
      "type": "Feature",
      "properties": {
        "norad_id": 31312,
        "name": "FENGYUN 1C DEB",
        "group": "fengyun-1c-debris",
        "lat": -39.906624766946415,
        "lon": -11.923258152189453,
        "alt_km": 908.9998365420306,
        "timestamp": "2025-12-21T03:56:51.117335+00:00",
        "meta_object_name": "FENGYUN 1C DEB",
        "meta_object_id": "1999-025BPQ",
        "meta_epoch": "2025-12-15T05:56:52.525824",
        "meta_mean_motion": 14.00925702,
        "meta_eccentricity": 0.00580012,
        "meta_inclination": 98.8604,
        "meta_ra_of_asc_node": 334.8421,
        "meta_arg_of_pericenter": 229.1743,
        "meta_mean_anomaly": 146.4845,
        "meta_ephemeris_type": 0,
        "meta_classification_type": "U",
        "meta_norad_cat_id": 31312,
        "meta_element_set_no": 999,
        "meta_rev_at_epoch": 95181,
        "meta_bstar": 0.00060391584,
        "meta_mean_motion_dot": 8.73e-06,
        "meta_mean_motion_ddot": 0,
        "tle_line1": "1 31312U 99025BPQ 25349.24783016  .00000873  00000+0  60392-3 0  9999",
        "tle_line2": "2 31312  98.8604 334.8421 0058001 229.1743 146.4845 14.00925702951810"
      },
      "geometry": {
        "type": "Point",
        "coordinates": [
          -11.923258152189453,
          -39.906624766946415
        ]
      }
    },
    {
      "type": "Feature",
      "properties": {
        "norad_id": 31313,
        "name": "FENGYUN 1C DEB",
        "group": "fengyun-1c-debris",
        "lat": -67.0018244337757,
        "lon": -78.79665381662652,
        "alt_km": 847.4205818712298,
        "timestamp": "2025-12-21T03:56:51.117344+00:00",
        "meta_object_name": "FENGYUN 1C DEB",
        "meta_object_id": "1999-025BPR",
        "meta_epoch": "2025-12-20T16:27:15.687072",
        "meta_mean_motion": 14.22283388,
        "meta_eccentricity": 0.0045019,
        "meta_inclination": 99.0155,
        "meta_ra_of_asc_node": 258.7479,
        "meta_arg_of_pericenter": 158.3164,
        "meta_mean_anomaly": 201.9931,
        "meta_ephemeris_type": 0,
        "meta_classification_type": "U",
        "meta_norad_cat_id": 31313,
        "meta_element_set_no": 999,
        "meta_rev_at_epoch": 97175,
        "meta_bstar": 0.00020601,
        "meta_mean_motion_dot": 4.16e-06,
        "meta_mean_motion_ddot": 0,
        "tle_line1": "1 31313U 99025BPR 25354.68559823  .00000416  00000+0  20601-3 0  9993",
        "tle_line2": "2 31313  99.0155 258.7479 0045019 158.3164 201.9931 14.22283388971756"
      },
      "geometry": {
        "type": "Point",
        "coordinates": [
          -78.79665381662652,
          -67.0018244337757
        ]
      }
    },
    {
      "type": "Feature",
      "properties": {
        "norad_id": 31314,
        "name": "FENGYUN 1C DEB",
        "group": "fengyun-1c-debris",
        "lat": 5.65913148994379,
        "lon": 169.8233450581365,
        "alt_km": 932.1647988519844,
        "timestamp": "2025-12-21T03:56:51.117353+00:00",
        "meta_object_name": "FENGYUN 1C DEB",
        "meta_object_id": "1999-025BPS",
        "meta_epoch": "2025-12-19T16:56:01.661856",
        "meta_mean_motion": 14.04930177,
        "meta_eccentricity": 0.00784549,
        "meta_inclination": 98.8218,
        "meta_ra_of_asc_node": 347.5232,
        "meta_arg_of_pericenter": 337.7634,
        "meta_mean_anomaly": 22.0138,
        "meta_ephemeris_type": 0,
        "meta_classification_type": "U",
        "meta_norad_cat_id": 31314,
        "meta_element_set_no": 999,
        "meta_rev_at_epoch": 60912,
        "meta_bstar": 0.00037467706,
        "meta_mean_motion_dot": 5.76e-06,
        "meta_mean_motion_ddot": 0,
        "tle_line1": "1 31314U 99025BPS 25353.70557479  .00000576  00000+0  37468-3 0  9997",
        "tle_line2": "2 31314  98.8218 347.5232 0078454 337.7634  22.0138 14.04930177609127"
      },
      "geometry": {
        "type": "Point",
        "coordinates": [
          169.8233450581365,
          5.65913148994379
        ]
      }
    }
  ]
}